{
  "norad_id": 56200,
  "name": "HAWK-7C",
  "history": [
    {
      "epoch": "2026-03-28T15:14:52.993248Z",
      "apogee_km": 487.66919927045,
      "perigee_km": 485.1169669855435,
      "latitude_deg": -1.8232876702008276e-06,
      "longitude_deg": -78.72225610442668,
      "height_km": 488.2387008746296,
      "semi_major_axis_km": 6864.5300831279965,
      "eccentricity": 0.0001859,
      "inclination_deg": 97.2813,
      "raan_deg": 336.0515,
      "arg_perigee_deg": 10.1232,
      "mean_anomaly_deg": 350.0044,
      "mean_motion_rev_day": 15.26463918
    },
    {
      "epoch": "2026-03-29T03:50:03.149952Z",
      "apogee_km": 487.59032205320636,
      "perigee_km": 485.1300862552371,
      "latitude_deg": 3.764433058556684e-05,
      "longitude_deg": 92.47962421570399,
      "height_km": 488.24444062518467,
      "semi_major_axis_km": 6864.497204154221,
      "eccentricity": 0.0001792,
      "inclination_deg": 97.2812,
      "raan_deg": 336.5626,
      "arg_perigee_deg": 8.1271,
      "mean_anomaly_deg": 351.9997,
      "mean_motion_rev_day": 15.26474885
    }
  ]
}